ONEWEB-0228             
1 48780U 21045P   23208.16973658  .00000103  00000+0  23900-3 0  9999
2 48780  87.9011 109.4783 0001739  77.7998 282.3327 13.15551026105488
